satname,norad_id,inclination_deg,eccentricity,mean_motion_rev_per_day,perigee_km,apogee_km,l1,l2
STARLINK-1319,45379,53.0545,0.0002211,15.37560772,451.8144207528294,454.83529318598175,1 45379U 20019V   25317.45540568  .00035050  00000+0  94324-3 0  9992,2 45379  53.0545 325.7600 0002211  66.0468 294.0766 15.37560772312251
STARLINK-1266,45383,53.0536,0.0001678,15.06410778,546.0164571724308,548.3405930626614,1 45383U 20019Z   25317.37668810  .00002267  00000+0  17097-3 0  9995,2 45383  53.0536 308.7684 0001678  91.7858 268.3323 15.06410778312476
STARLINK-1267,45384,53.0544,0.000138,15.0637349,546.337099148127,548.2485177752615,1 45384U 20019AA  25317.36202858 -.00023821  00000+0 -15868-2 0  9995,2 45384  53.0544 309.4914 0001380  91.3840 268.7308 15.06373490312462
STARLINK-1272,45386,53.0526,0.0005651,15.35850312,454.53267499042704,462.25932458678835,1 45386U 20019AC  25317.84545273  .00089745  00000+0  25155-2 0  9996,2 45386  53.0526 301.8747 0005651  49.8118 310.3378 15.35850312312618
STARLINK-1274,45387,53.0375,0.0003475,15.30808206,471.01876822529266,475.7805862159603,1 45387U 20019AD  25317.19845382  .00051248  00000+0  16980-2 0  9992,2 45387  53.0375 292.7140 0003475 352.0830   8.0114 15.30808206312684
STARLINK-1280,45388,53.0544,0.0005647,15.41581592,437.5899280380563,445.2919593676743,1 45388U 20019AE  25317.66668981  .00038361  00000+0  90334-3 0  9990,2 45388  53.0544 321.6788 0005647  32.9181 275.0426 15.41581592  5824
STARLINK-1283,45389,53.0531,0.0006913,15.32215652,464.46972820522205,473.9368608964669,1 45389U 20019AF  25317.38994611  .00120965  00000+0  37833-2 0  9998,2 45389  53.0531 302.9303 0006913  48.1431 312.0158 15.32215652312567
STARLINK-1284,45390,53.0541,0.0001297,15.06414685,546.2683390233769,548.0647627644785,1 45390U 20019AG  25317.38037178  .00004340  00000+0  30997-3 0  9999,2 45390  53.0541 308.7530 0001297  92.4174 267.6964 15.06414685312470
STARLINK-1292,45394,53.0393,0.0003091,16.14566859,232.30081717049598,236.388653379242,1 45394U 20019AL  25317.93022867  .01378152  14184-2  10674-2 0  9999,2 45394  53.0393 247.0315 0003091 116.3846 243.7507 16.14566859313123
STARLINK-1297,45395,53.0548,0.000144,15.06413667,546.1724267077698,548.166915028979,1 45395U 20019AM  25317.81532538  .00005558  00000+0  39160-3 0  9995,2 45395  53.0548 306.7998 0001440  83.3303 276.7850 15.06413667311722
STARLINK-1307,45397,53.0551,0.0001986,15.06418498,545.7795018482666,548.5302277769715,1 45397U 20019AP  25317.27716646  .00003558  00000+0  25754-3 0  9993,2 45397  53.0551 309.2149 0001986  94.4951 265.6265 15.06418498312287
STARLINK-1255,45399,53.0486,0.0004585,15.32246357,465.972353821895,472.25128098745427,1 45399U 20019AR  25317.20253195  .00092845  00000+0  29156-2 0  9999,2 45399  53.0486 294.8859 0004585  41.2739 318.8607 15.32246357312468
STARLINK-1260,45404,53.0535,0.0001625,15.06379422,546.1492478730324,548.4000066518929,1 45404U 20019AW  25317.27808928 -.00023406  00000+0 -15584-2 0  9992,2 45404  53.0535 299.2078 0001625  71.8469 288.2697 15.06379422312317
STARLINK-1263,45405,53.0539,0.0001434,15.06410439,546.1864736962361,548.1726544868179,1 45405U 20019AX  25317.39603601  .00002875  00000+0  21179-3 0  9990,2 45405  53.0539 298.6815 0001434  92.5234 267.5919 15.06410439312335
STARLINK-1265,45406,53.0541,0.0001185,15.06376673,546.4623904799191,548.1037150324219,1 45406U 20019AY  25317.33707142 -.00010496  00000+0 -68719-3 0  9991,2 45406  53.0541 298.9472 0001185  82.4590 277.6534 15.06376673312322
STARLINK-1278,45408,53.0532,0.0005074,15.35001688,457.4453456282781,464.38561608585314,1 45408U 20019BA  25317.91670139  .00097417  00000+0  28021-2 0  9999,2 45408  53.0532 321.5483 0005074  32.9991  27.4749 15.35001688  5562
STARLINK-1296,45412,53.0542,0.0002049,15.06400225,545.7918645675454,548.6298721239928,1 45412U 20019BE  25317.67248958 -.00002125  00000+0 -12376-3 0  9998,2 45412  53.0542 297.4390 0002049  87.1345 272.9878 15.06400225312378
STARLINK-1298,45413,53.0468,0.0008738,15.54856128,396.64589722048004,408.4958623111588,1 45413U 20019BF  25317.56650972  .00071206  00000+0  10450-2 0  9994,2 45413  53.0468 269.6332 0008738   8.8948 351.2216 15.54856128312853
STARLINK-1309,45414,53.0542,0.0001197,15.06428126,546.296403236227,547.9543110445247,1 45414U 20019BG  25317.35549725  .00019090  00000+0  12960-2 0  9996,2 45414  53.0542 298.8642 0001197  85.2824 274.8302 15.06428126312316
STARLINK-1316,45415,53.0529,0.0001388,15.06394931,546.2658532005617,548.1883342729825,1 45415U 20019BH  25317.64669013 -.00001137  00000+0 -57475-4 0  9999,2 45415  53.0529 297.5530 0001388  86.1018 274.0130 15.06394931312396
STARLINK-1318,45416,53.0493,0.0005809,15.62167804,377.46980458845246,385.32303051296367,1 45416U 20019BJ  25317.55602347  .00099735  00000+0  11060-2 0  9994,2 45416  53.0493 260.5212 0005809  79.7321 280.4347 15.62167804312896
STARLINK-1286,45417,53.0538,0.0003488,15.3742043,451.3576275214009,456.12354532569134,1 45417U 20019BK  25317.91670139  .00103881  00000+0  27623-2 0  9999,2 45417  53.0538 321.8646 0003488  43.5163 271.4167 15.37420430  5756
STARLINK-1308,45419,53.0539,0.0001684,15.0637683,546.1163309055546,548.4488122172561,1 45419U 20019BM  25317.41539578 -.00011663  00000+0 -76585-3 0  9997,2 45419  53.0539 328.5925 0001684  47.8586 312.2546 15.06376830311941
STARLINK-1329,45531,53.0557,0.0001638,15.06391499,546.1032360399249,548.3719887629468,1 45531U 20025A   25317.84849855 -.00004964  00000+0 -31466-3 0  9993,2 45531  53.0557 266.6514 0001638  91.7165 268.4011 15.06391499307630
STARLINK-1338,45532,53.054,0.0001824,15.0636233,546.0638088327114,548.5902181048241,1 45532U 20025B   25317.85956836  .00011433  00000+0  78601-3 0  9992,2 45532  53.0540 266.5983 0001824 101.5095 258.6099 15.06362330307630
STARLINK-1350,45535,53.0737,0.0002276,15.32783857,465.95290844306055,469.06904740261234,1 45535U 20025E   25317.72405228  .00024622  00000+0  77584-3 0  9998,2 45535  53.0737 216.3884 0002276  85.3490 274.7771 15.32783857308350
STARLINK-1362,45538,53.0547,0.0001497,15.06372398,546.2594180412443,548.3328927279654,1 45538U 20025H   25317.16193321 -.00012285  00000+0 -80784-3 0  9997,2 45538  53.0547 269.4487 0001497 100.0092 260.1066 15.06372398307537
STARLINK-1368,45540,53.0535,0.0002145,15.06342793,545.9013698273766,548.8724195782042,1 45540U 20025K   25317.56469266  .00016495  00000+0  11254-2 0  9998,2 45540  53.0535 267.9239 0002145  91.4483 268.6751 15.06342793307588
STARLINK-1371,45542,53.0547,0.0001371,15.06406119,546.2433414319084,548.1422668642044,1 45542U 20025M   25317.86692175 -.00000085  00000+0  13175-4 0  9995,2 45542  53.0547 266.5636 0001371  94.0157 266.0989 15.06406119307630
STARLINK-1372,45543,53.0521,0.0001548,15.06413217,546.0990123469055,548.2430877191964,1 45543U 20025N   25317.83746773  .00040761  00000+0  27386-2 0  9998,2 45543  53.0521 266.6972 0001548 122.6269 237.4870 15.06413217306722
STARLINK-1373,45544,53.0544,0.0001319,15.06419262,546.2390776234406,548.0659689996901,1 45544U 20025P   25317.59048397  .00003920  00000+0  28174-3 0  9992,2 45544  53.0544 267.8062 0001319  90.0500 270.0640 15.06419262307593
STARLINK-1294,45551,53.0462,0.0007337,15.6213365,376.5354007805181,386.4544846932904,1 45551U 20025W   25317.10963864  .00110233  00000+0  12213-2 0  9994,2 45551  53.0462 198.2075 0007337  99.0691 261.1153 15.62133650308538
STARLINK-1325,45554,53.0532,0.0002843,15.66318512,367.53105965984105,371.367737286012,1 45554U 20025Z   25317.91670139  .00081613  00000+0  77131-3 0  9996,2 45554  53.0532 186.9877 0002843 206.2431 305.9535 15.66318512  5771
STARLINK-1327,45555,53.055,0.0001278,15.06377632,546.3950451778901,548.1651817920965,1 45555U 20025AA  25317.82824149  .00007322  00000+0  51026-3 0  9999,2 45555  53.0550 246.7392 0001278  93.2568 266.8567 15.06377632307907
STARLINK-1356,45564,53.0541,0.0001324,15.06355978,546.4295483006754,548.2634163267921,1 45564U 20025AK  25317.83193479  .00019335  00000+0  13149-2 0  9995,2 45564  53.0541 246.7226 0001324  80.4822 279.6316 15.06355978307909
STARLINK-1357,45565,53.0618,0.0009749,15.34674144,455.2202068558681,468.5568886688943,1 45565U 20025AL  25317.49216760  .00035858  00000+0  10567-2 0  9996,2 45565  53.0618 230.8306 0009749  58.7220 301.4735 15.34674144308109
STARLINK-1361,45567,53.0542,0.0001311,15.06387968,546.3405165003369,548.1563525612701,1 45567U 20025AN  25317.51859137 -.00006403  00000+0 -41145-3 0  9995,2 45567  53.0542 248.1281 0001311  88.9176 271.1963 15.06387968307865
STARLINK-1363,45568,53.0535,0.000588,15.43955904,430.4418705412645,438.4534701135708,1 45568U 20025AP  25317.50554700  .00067298  00000+0  14513-2 0  9998,2 45568  53.0535 242.5079 0005880 106.2895 253.8758 15.43955904307937
STARLINK-1366,45569,53.052,0.0005162,15.42265923,435.9042572202952,442.94270666185184,1 45569U 20025AQ  25317.80225381  .00039831  00000+0  91638-3 0  9998,2 45569  53.0520 240.6784 0005162 103.0021 257.1560 15.42265923307980
STARLINK-1376,45570,53.0558,0.0001602,15.06402853,546.0933744797958,548.3122533561755,1 45570U 20025AR  25317.51491739  .00000134  00000+0  27875-4 0  9997,2 45570  53.0558 248.1502 0001602  93.3752 266.7420 15.06402853307853
STARLINK-1320,45572,53.0544,0.0010317,15.44689745,425.2635302574836,439.3161650148959,1 45572U 20025AT  25317.34475162  .00050965  00000+0  10752-2 0  9993,2 45572  53.0544 188.8862 0010317  69.0140 291.1968 15.44689745308694
STARLINK-1321,45573,53.0535,0.0001437,15.06344732,546.3857546476347,548.3761485069181,1 45573U 20025AU  25317.76650745  .00029199  00000+0  19740-2 0  9993,2 45573  53.0535 237.0178 0001437 100.7791 259.3360 15.06344732307738
STARLINK-1328,45576,53.0489,0.0011007,15.73618072,341.162413081317,355.9705781565726,1 45576U 20025AX  25317.91670139  .00144430  00000+0  99452-3 0  9997,2 45576  53.0489 206.4807 0011007  89.8973 103.5676 15.73618072  5911
